{
  "type": "FeatureCollection",
  "features": [
    {
      "type": "Feature",
      "properties": {
        "norad_id": 43208,
        "name": "BEIDOU-3 M3 (C21)",
        "group": "beidou",
        "lat": 3.370236663461387,
        "lon": 71.68719657499905,
        "alt_km": 21515.848555855984,
        "timestamp": "2025-12-08T15:42:50.056048+00:00",
        "meta_object_name": "BEIDOU-3 M3 (C21)",
        "meta_object_id": "2018-018B",
        "meta_epoch": "2025-12-03T06:41:57.693408",
        "meta_mean_motion": 1.86230862,
        "meta_eccentricity": 0.0006282,
        "meta_inclination": 56.4772,
        "meta_ra_of_asc_node": 69.6218,
        "meta_arg_of_pericenter": 317.5873,
        "meta_mean_anomaly": 42.3668,
        "meta_ephemeris_type": 0,
        "meta_classification_type": "U",
        "meta_norad_cat_id": 43208,
        "meta_element_set_no": 999,
        "meta_rev_at_epoch": 5309,
        "meta_bstar": 0,
        "meta_mean_motion_dot": -4.9e-07,
        "meta_mean_motion_ddot": 0,
        "tle_line1": "1 43208U 18018B   25337.27913997 -.00000049  00000+0  00000+0 0  9994",
        "tle_line2": "2 43208  56.4772  69.6218 0006282 317.5873  42.3668  1.86230862 53096"
      },
      "geometry": {
        "type": "Point",
        "coordinates": [
          71.68719657499905,
          3.370236663461387
        ]
      }
    },
    {
      "type": "Feature",
      "properties": {
        "norad_id": 43245,
        "name": "BEIDOU-3 M9 (C29)",
        "group": "beidou",
        "lat": -30.87630671316862,
        "lon": 151.9626237952637,
        "alt_km": 21529.843279728673,
        "timestamp": "2025-12-08T15:42:50.056058+00:00",
        "meta_object_name": "BEIDOU-3 M9 (C29)",
        "meta_object_id": "2018-029A",
        "meta_epoch": "2025-12-07T06:05:41.943552",
        "meta_mean_motion": 1.86227905,
        "meta_eccentricity": 0.00016267,
        "meta_inclination": 54.3707,
        "meta_ra_of_asc_node": 306.6586,
        "meta_arg_of_pericenter": 277.0016,
        "meta_mean_anomaly": 82.965,
        "meta_ephemeris_type": 0,
        "meta_classification_type": "U",
        "meta_norad_cat_id": 43245,
        "meta_element_set_no": 999,
        "meta_rev_at_epoch": 5232,
        "meta_bstar": 0,
        "meta_mean_motion_dot": -7e-07,
        "meta_mean_motion_ddot": 0,
        "tle_line1": "1 43245U 18029A   25341.25395768 -.00000070  00000+0  00000+0 0  9994",
        "tle_line2": "2 43245  54.3707 306.6586 0001626 277.0016  82.9650  1.86227905 52320"
      },
      "geometry": {
        "type": "Point",
        "coordinates": [
          151.9626237952637,
          -30.87630671316862
        ]
      }
    },
    {
      "type": "Feature",
      "properties": {
        "norad_id": 43246,
        "name": "BEIDOU-3 M10 (C30)",
        "group": "beidou",
        "lat": -53.694989857234965,
        "lon": -156.08235164671308,
        "alt_km": 21535.595803328997,
        "timestamp": "2025-12-08T15:42:50.056070+00:00",
        "meta_object_name": "BEIDOU-3 M10 (C30)",
        "meta_object_id": "2018-029B",
        "meta_epoch": "2025-12-07T04:32:29.911776",
        "meta_mean_motion": 1.86228892,
        "meta_eccentricity": 0.00040611,
        "meta_inclination": 54.3683,
        "meta_ra_of_asc_node": 306.6886,
        "meta_arg_of_pericenter": 0.524,
        "meta_mean_anomaly": 359.4613,
        "meta_ephemeris_type": 0,
        "meta_classification_type": "U",
        "meta_norad_cat_id": 43246,
        "meta_element_set_no": 999,
        "meta_rev_at_epoch": 5230,
        "meta_bstar": 0,
        "meta_mean_motion_dot": -7e-07,
        "meta_mean_motion_ddot": 0,
        "tle_line1": "1 43246U 18029B   25341.18923509 -.00000070  00000+0  00000+0 0  9997",
        "tle_line2": "2 43246  54.3683 306.6886 0004061   0.5240 359.4613  1.86228892 52306"
      },
      "geometry": {
        "type": "Point",
        "coordinates": [
          -156.08235164671308,
          -53.694989857234965
        ]
      }
    },
    {
      "type": "Feature",
      "properties": {
        "norad_id": 43539,
        "name": "BEIDOU-2 IGSO-7 (C16)",
        "group": "beidou",
        "lat": -53.95101271599415,
        "lon": 57.9984374756255,
        "alt_km": 35442.00209229104,
        "timestamp": "2025-12-08T15:42:50.056081+00:00",
        "meta_object_name": "BEIDOU-2 IGSO-7 (C16)",
        "meta_object_id": "2018-057A",
        "meta_epoch": "2025-12-07T10:43:46.663104",
        "meta_mean_motion": 1.0025846,
        "meta_eccentricity": 0.00925092,
        "meta_inclination": 55.1739,
        "meta_ra_of_asc_node": 164.7176,
        "meta_arg_of_pericenter": 235.2145,
        "meta_mean_anomaly": 308.6901,
        "meta_ephemeris_type": 0,
        "meta_classification_type": "U",
        "meta_norad_cat_id": 43539,
        "meta_element_set_no": 999,
        "meta_rev_at_epoch": 2720,
        "meta_bstar": 0,
        "meta_mean_motion_dot": -6.7e-07,
        "meta_mean_motion_ddot": 0,
        "tle_line1": "1 43539U 18057A   25341.44706786 -.00000067  00000+0  00000+0 0  9994",
        "tle_line2": "2 43539  55.1739 164.7176 0092509 235.2145 308.6901  1.00258460 27209"
      },
      "geometry": {
        "type": "Point",
        "coordinates": [
          57.9984374756255,
          -53.95101271599415
        ]
      }
    },
    {
      "type": "Feature",
      "properties": {
        "norad_id": 43581,
        "name": "BEIDOU-3 M5 (C23)",
        "group": "beidou",
        "lat": 48.67954017062975,
        "lon": -46.74639405933623,
        "alt_km": 21525.31368805273,
        "timestamp": "2025-12-08T15:42:50.056093+00:00",
        "meta_object_name": "BEIDOU-3 M5 (C23)",
        "meta_object_id": "2018-062A",
        "meta_epoch": "2025-12-07T09:56:06.121536",
        "meta_mean_motion": 1.86228654,
        "meta_eccentricity": 0.00021243,
        "meta_inclination": 54.089,
        "meta_ra_of_asc_node": 188.8244,
        "meta_arg_of_pericenter": 353.2088,
        "meta_mean_anomaly": 6.859,
        "meta_ephemeris_type": 0,
        "meta_classification_type": "U",
        "meta_norad_cat_id": 43581,
        "meta_element_set_no": 999,
        "meta_rev_at_epoch": 5006,
        "meta_bstar": 0,
        "meta_mean_motion_dot": 5.9e-07,
        "meta_mean_motion_ddot": 0,
        "tle_line1": "1 43581U 18062A   25341.41395974  .00000059  00000+0  00000+0 0  9997",
        "tle_line2": "2 43581  54.0890 188.8244 0002124 353.2088   6.8590  1.86228654 50063"
      },
      "geometry": {
        "type": "Point",
        "coordinates": [
          -46.74639405933623,
          48.67954017062975
        ]
      }
    },
    {
      "type": "Feature",
      "properties": {
        "norad_id": 43582,
        "name": "BEIDOU-3 M6 (C24)",
        "group": "beidou",
        "lat": -19.08790341141435,
        "lon": 23.305251893798477,
        "alt_km": 21550.85615788013,
        "timestamp": "2025-12-08T15:42:50.056104+00:00",
        "meta_object_name": "BEIDOU-3 M6 (C24)",
        "meta_object_id": "2018-062B",
        "meta_epoch": "2025-12-07T19:32:10.570272",
        "meta_mean_motion": 1.86229692,
        "meta_eccentricity": 0.00077761,
        "meta_inclination": 54.0886,
        "meta_ra_of_asc_node": 188.7999,
        "meta_arg_of_pericenter": 46.2812,
        "meta_mean_anomaly": 313.8511,
        "meta_ephemeris_type": 0,
        "meta_classification_type": "U",
        "meta_norad_cat_id": 43582,
        "meta_element_set_no": 999,
        "meta_rev_at_epoch": 5007,
        "meta_bstar": 0,
        "meta_mean_motion_dot": 5.5e-07,
        "meta_mean_motion_ddot": 0,
        "tle_line1": "1 43582U 18062B   25341.81401123  .00000055  00000+0  00000+0 0  9992",
        "tle_line2": "2 43582  54.0886 188.7999 0007776  46.2812 313.8511  1.86229692 50075"
      },
      "geometry": {
        "type": "Point",
        "coordinates": [
          23.305251893798477,
          -19.08790341141435
        ]
      }
    },
    {
      "type": "Feature",
      "properties": {
        "norad_id": 43602,
        "name": "BEIDOU-3 M12 (C26)",
        "group": "beidou",
        "lat": -47.505682492208365,
        "lon": 59.551546496497785,
        "alt_km": 21557.002346993788,
        "timestamp": "2025-12-08T15:42:50.056115+00:00",
        "meta_object_name": "BEIDOU-3 M12 (C26)",
        "meta_object_id": "2018-067A",
        "meta_epoch": "2025-12-07T18:02:34.116000",
        "meta_mean_motion": 1.86227677,
        "meta_eccentricity": 0.00091651,
        "meta_inclination": 54.1832,
        "meta_ra_of_asc_node": 187.5325,
        "meta_arg_of_pericenter": 40.8071,
        "meta_mean_anomaly": 319.3279,
        "meta_ephemeris_type": 0,
        "meta_classification_type": "U",
        "meta_norad_cat_id": 43602,
        "meta_element_set_no": 999,
        "meta_rev_at_epoch": 4955,
        "meta_bstar": 0,
        "meta_mean_motion_dot": 5.6e-07,
        "meta_mean_motion_ddot": 0,
        "tle_line1": "1 43602U 18067A   25341.75178375  .00000056  00000+0  00000+0 0  9994",
        "tle_line2": "2 43602  54.1832 187.5325 0009165  40.8071 319.3279  1.86227677 49555"
      },
      "geometry": {
        "type": "Point",
        "coordinates": [
          59.551546496497785,
          -47.505682492208365
        ]
      }
    }
  ]
}